STARLETTE               
1 07646U 75010A   24192.93257002 -.00000129  00000+0  88384-5 0  9990
2 07646  49.8264  12.2810 0205617 249.8976 107.9685 13.82328979496847
LAGEOS 1                
1 08820U 76039A   24192.23226406 -.00000001  00000+0  00000+0 0  9996
2 08820 109.8614 297.1765 0044095  93.8539 288.9471  6.38665105868400
AJISAI (EGS)            
1 16908U 86061A   24193.49745708 -.00000094  00000+0  25232-4 0  9999
2 16908  50.0070 157.3591 0011227 184.1814 339.6043 12.44506502392516
COSMOS 1989 (ETALON 1)  
1 19751U 89001C   24192.46240633 -.00000015  00000+0  00000+0 0  9992
2 19751  64.5632  96.4385 0023801 215.9729 316.7989  2.13156247276307
COSMOS 2024 (ETALON 2)  
1 20026U 89039C   24193.54564882 -.00000069  00000+0  00000+0 0  9994
2 20026  65.3274 334.7330 0019521 216.8665 103.7451  2.13204554273452
LAGEOS 2                
1 22195U 92070B   24193.42673764 -.00000009  00000+0  00000+0 0  9993
2 22195  52.6798 352.6754 0137506 238.3267 139.1363  6.47293420749736
STELLA                  
1 22824U 93061B   24193.57301090 -.00000027  00000+0  77445-5 0  9992
2 22824  98.8767 240.2365 0007290 122.8239  49.6596 14.27427467604106
LARETS                  
1 27944U 03042F   24193.58759745  .00000134  00000+0  35310-4 0  9997
2 27944  98.3185 334.0562 0013571  80.8287 279.4449 14.63531807110149
LARES                   
1 38077U 12006A   24193.60774507 -.00000042  00000+0 -22344-4 0  9995
2 38077  69.4912  57.4429 0009804 333.2347  26.8172 12.54931606568546
LARES-2                 
1 53105U 22080A   24190.45741613  .00000015  00000+0  00000+0 0  9997
2 53105  70.1402 188.3909 0004947 133.8868 226.2123  6.38965321 46381
